0 COSMOS 970 DEB
1 12861U 77121AP  13281.43963089  .00000126  00000-0  36099-3 0  9925
2 12861 065.7736 248.1449 0107308 293.7380 149.4812 13.38709230650430
0 COSMOS 970 DEB
1 12861U 77121AP  13283.53817481  .00000088  00000-0  29270-3 0  9933
2 12861 065.7738 243.2615 0107317 292.9053 182.9908 13.38711029650719
0 COSMOS 970 DEB
1 12861U 77121AP  13286.14935234  .00000090  00000-0  29701-3 0  9943
2 12861 065.7741 237.1853 0107315 291.8482 167.0729 13.38711945651062
0 COSMOS 970 DEB
1 12861U 77121AP  13288.46417025  .00000184  00000-0  46734-3 0  9953
2 12861 065.7743 231.7990 0107303 290.9199 162.9054 13.38712758651370
0 COSMOS 970 DEB
1 12861U 77121AP  13291.15591748  .00000169  00000-0  43921-3 0  9967
2 12861 065.7742 225.5357 0107251 289.8417 175.2863 13.38714023651731
0 COSMOS 970 DEB
1 12861U 77121AP  13293.17378009  .00000175  00000-0  45000-3 0  9972
2 12861 065.7741 220.8406 0107200 289.0207 180.0249 13.38715020652007
0 COSMOS 970 DEB
1 12861U 77121AP  13295.19918464  .00000153  00000-0  41129-3 0  9986
2 12861 065.7740 216.1279 0107190 288.1977 221.1166 13.38716484652273
